{
  "links" : {
    "next" : "https://api.nasa.gov/neo/rest/v1/feed?start_date=2002-03-16&end_date=2002-03-16&detailed=true&api_key=t0TVs3DtDT2H8Oy2Zy8m2eVrNsAVKAexjcZXUckd",
    "prev" : "https://api.nasa.gov/neo/rest/v1/feed?start_date=2002-03-14&end_date=2002-03-14&detailed=true&api_key=t0TVs3DtDT2H8Oy2Zy8m2eVrNsAVKAexjcZXUckd",
    "self" : "https://api.nasa.gov/neo/rest/v1/feed?start_date=2002-03-15&end_date=2002-03-15&detailed=true&api_key=t0TVs3DtDT2H8Oy2Zy8m2eVrNsAVKAexjcZXUckd"
  },
  "element_count" : 6,
  "near_earth_objects" : {
    "2002-03-15" : [ {
      "links" : {
        "self" : "https://api.nasa.gov/neo/rest/v1/neo/2326388?api_key=t0TVs3DtDT2H8Oy2Zy8m2eVrNsAVKAexjcZXUckd"
      },
      "neo_reference_id" : "2326388",
      "name" : "326388 (2001 QD96)",
      "nasa_jpl_url" : "http://ssd.jpl.nasa.gov/sbdb.cgi?sstr=2326388",
      "absolute_magnitude_h" : 18.2,
      "estimated_diameter" : {
        "kilometers" : {
          "estimated_diameter_min" : 0.6089126221,
          "estimated_diameter_max" : 1.3615700154
        },
        "meters" : {
          "estimated_diameter_min" : 608.9126221057,
          "estimated_diameter_max" : 1361.5700153859
        },
        "miles" : {
          "estimated_diameter_min" : 0.3783606449,
          "estimated_diameter_max" : 0.846040122
        },
        "feet" : {
          "estimated_diameter_min" : 1997.7448871092,
          "estimated_diameter_max" : 4467.0933692788
        }
      },
      "is_potentially_hazardous_asteroid" : false,
      "close_approach_data" : [ {
        "close_approach_date" : "2002-03-15",
        "epoch_date_close_approach" : 1016179200000,
        "relative_velocity" : {
          "kilometers_per_second" : "16.049732017",
          "kilometers_per_hour" : "57779.0352610891",
          "miles_per_hour" : "35901.6455487584"
        },
        "miss_distance" : {
          "astronomical" : "0.254958232",
          "lunar" : "99.1787567139",
          "kilometers" : "38141212",
          "miles" : "23699850"
        },
        "orbiting_body" : "Earth"
      } ],
      "orbital_data" : {
        "orbit_id" : "89",
        "orbit_determination_date" : "2017-09-27 06:52:20",
        "orbit_uncertainty" : "0",
        "minimum_orbit_intersection" : ".232868",
        "jupiter_tisserand_invariant" : "4.901",
        "epoch_osculation" : "2458000.5",
        "eccentricity" : ".4962382535901616",
        "semi_major_axis" : "1.274099757568613",
        "inclination" : "17.95351070629344",
        "ascending_node_longitude" : "330.3308969253744",
        "orbital_period" : "525.2953743197669",
        "perihelion_distance" : ".6418427189731164",
        "perihelion_argument" : "145.7308064612986",
        "aphelion_distance" : "1.906356796164111",
        "perihelion_time" : "2458097.584041966812",
        "mean_anomaly" : "293.4655189886049",
        "mean_motion" : ".6853287076174681",
        "equinox" : "J2000"
      }
    }, {
      "links" : {
        "self" : "https://api.nasa.gov/neo/rest/v1/neo/3117468?api_key=t0TVs3DtDT2H8Oy2Zy8m2eVrNsAVKAexjcZXUckd"
      },
      "neo_reference_id" : "3117468",
      "name" : "(2002 FT6)",
      "nasa_jpl_url" : "http://ssd.jpl.nasa.gov/sbdb.cgi?sstr=3117468",
      "absolute_magnitude_h" : 22.5,
      "estimated_diameter" : {
        "kilometers" : {
          "estimated_diameter_min" : 0.0840533402,
          "estimated_diameter_max" : 0.1879489824
        },
        "meters" : {
          "estimated_diameter_min" : 84.0533402073,
          "estimated_diameter_max" : 187.9489824394
        },
        "miles" : {
          "estimated_diameter_min" : 0.0522283081,
          "estimated_diameter_max" : 0.1167860472
        },
        "feet" : {
          "estimated_diameter_min" : 275.7655606856,
          "estimated_diameter_max" : 616.6305395464
        }
      },
      "is_potentially_hazardous_asteroid" : false,
      "close_approach_data" : [ {
        "close_approach_date" : "2002-03-15",
        "epoch_date_close_approach" : 1016179200000,
        "relative_velocity" : {
          "kilometers_per_second" : "14.36361978",
          "kilometers_per_hour" : "51709.0312080673",
          "miles_per_hour" : "32129.9810859238"
        },
        "miss_distance" : {
          "astronomical" : "0.0410057822",
          "lunar" : "15.9512491226",
          "kilometers" : "6134378",
          "miles" : "3811725.75"
        },
        "orbiting_body" : "Earth"
      } ],
      "orbital_data" : {
        "orbit_id" : "22",
        "orbit_determination_date" : "2017-06-21 06:17:20",
        "orbit_uncertainty" : "1",
        "minimum_orbit_intersection" : ".0413485",
        "jupiter_tisserand_invariant" : "6.026",
        "epoch_osculation" : "2458000.5",
        "eccentricity" : ".462699943687126",
        "semi_major_axis" : ".9884238521030382",
        "inclination" : "9.488402611056026",
        "ascending_node_longitude" : "188.5128520742066",
        "orbital_period" : "358.9328872268388",
        "perihelion_distance" : ".5310801913959503",
        "perihelion_argument" : "226.7025553557057",
        "aphelion_distance" : "1.445767512810126",
        "perihelion_time" : "2458025.544584674616",
        "mean_anomaly" : "334.8809574053776",
        "mean_motion" : "1.00297301476442",
        "equinox" : "J2000"
      }
    }, {
      "links" : {
        "self" : "https://api.nasa.gov/neo/rest/v1/neo/3274304?api_key=t0TVs3DtDT2H8Oy2Zy8m2eVrNsAVKAexjcZXUckd"
      },
      "neo_reference_id" : "3274304",
      "name" : "(2005 EY169)",
      "nasa_jpl_url" : "http://ssd.jpl.nasa.gov/sbdb.cgi?sstr=3274304",
      "absolute_magnitude_h" : 22.2,
      "estimated_diameter" : {
        "kilometers" : {
          "estimated_diameter_min" : 0.096506147,
          "estimated_diameter_max" : 0.2157943048
        },
        "meters" : {
          "estimated_diameter_min" : 96.5061469579,
          "estimated_diameter_max" : 215.7943048444
        },
        "miles" : {
          "estimated_diameter_min" : 0.059966121,
          "estimated_diameter_max" : 0.134088323
        },
        "feet" : {
          "estimated_diameter_min" : 316.6212271853,
          "estimated_diameter_max" : 707.9865871058
        }
      },
      "is_potentially_hazardous_asteroid" : false,
      "close_approach_data" : [ {
        "close_approach_date" : "2002-03-15",
        "epoch_date_close_approach" : 1016179200000,
        "relative_velocity" : {
          "kilometers_per_second" : "11.1228531871",
          "kilometers_per_hour" : "40042.2714734524",
          "miles_per_hour" : "24880.7102941571"
        },
        "miss_distance" : {
          "astronomical" : "0.1617107009",
          "lunar" : "62.9054603577",
          "kilometers" : "24191576",
          "miles" : "15031948"
        },
        "orbiting_body" : "Earth"
      } ],
      "orbital_data" : {
        "orbit_id" : "28",
        "orbit_determination_date" : "2017-07-31 11:21:30",
        "orbit_uncertainty" : "0",
        "minimum_orbit_intersection" : ".0696479",
        "jupiter_tisserand_invariant" : "4.889",
        "epoch_osculation" : "2455353.5",
        "eccentricity" : ".2330986549811902",
        "semi_major_axis" : "1.308067523980838",
        "inclination" : "20.89051623727846",
        "ascending_node_longitude" : "346.9778286309497",
        "orbital_period" : "546.4414963367311",
        "perihelion_distance" : "1.003158743516329",
        "perihelion_argument" : "227.5148042279464",
        "aphelion_distance" : "1.612976304445347",
        "perihelion_time" : "2455126.076234872161",
        "mean_anomaly" : "149.8285836542145",
        "mean_motion" : ".6588079463462981",
        "equinox" : "J2000"
      }
    } ]
  }
}